start=new Date('2022-03-29T00:00:00.000Z').valueOf();
sats=[{"PERIAPSIS":"463.081","INCLINATION":"53.2174","OBJECT_NAME":"STARLINK-3337","ELEMENT_SET_NO":"999","LAUNCH_DATE":"2022-01-06","PERIOD":"93.879","REV_AT_EPOCH":"365","TLE_LINE1":"1 50826U 22001Z   22087.91667824 -.00719657  00000-0 -23445-1 0  9994","ECCENTRICITY":"0.00016390","TIME_SYSTEM":"UTC","FILE":"3378342","ARG_OF_PERICENTER":"48.2523","DECAY_DATE":null,"OBJECT_TYPE":"PAYLOAD","RCS_SIZE":"LARGE","NORAD_CAT_ID":"50826","CLASSIFICATION_TYPE":"U","OBJECT_ID":"2022-001Z","MEAN_MOTION":"15.33896231","MEAN_MOTION_DOT":"-0.00719657","EPOCH":"2022-03-28T22:00:00.999936","TLE_LINE2":"2 50826  53.2174 162.8761 0001639  48.2523 147.1068 15.33896231  3651","MEAN_MOTION_DDOT":"0.0000000000000","REF_FRAME":"TEME","MEAN_ELEMENT_THEORY":"SGP4","APOAPSIS":"465.324","CENTER_NAME":"EARTH","GP_ID":"199944733","RA_OF_ASC_NODE":"162.8761","SEMIMAJOR_AXIS":"6842.338","EPHEMERIS_TYPE":"0","SITE":"AFETR","BSTAR":"-0.02344500000000","COUNTRY_CODE":"US","MEAN_ANOMALY":"147.1068"},{"RCS_SIZE":"LARGE","NORAD_CAT_ID":"50827","CLASSIFICATION_TYPE":"U","ARG_OF_PERICENTER":"54.4372","DECAY_DATE":null,"OBJECT_TYPE":"PAYLOAD","FILE":"3378342","TIME_SYSTEM":"UTC","ECCENTRICITY":"0.00013540","REV_AT_EPOCH":"365","TLE_LINE1":"1 50827U 22001AA  22087.91667824 -.00718077  00000-0 -24262-1 0  9998","PERIOD":"93.949","LAUNCH_DATE":"2022-01-06","ELEMENT_SET_NO":"999","INCLINATION":"53.2174","OBJECT_NAME":"STARLINK-3329","PERIAPSIS":"466.702","MEAN_ANOMALY":"27.1914","SITE":"AFETR","BSTAR":"-0.02426200000000","COUNTRY_CODE":"US","EPHEMERIS_TYPE":"0","SEMIMAJOR_AXIS":"6845.764","RA_OF_ASC_NODE":"162.8786","CENTER_NAME":"EARTH","GP_ID":"199945485","MEAN_ELEMENT_THEORY":"SGP4","APOAPSIS":"468.556","MEAN_MOTION_DDOT":"0.0000000000000","REF_FRAME":"TEME","TLE_LINE2":"2 50827  53.2174 162.8786 0001354  54.4372  27.1914 15.32744792  3654","EPOCH":"2022-03-28T22:00:00.999936","MEAN_MOTION_DOT":"-0.00718077","MEAN_MOTION":"15.32744792","OBJECT_ID":"2022-001AA"},{"TIME_SYSTEM":"UTC","FILE":"3378342","RCS_SIZE":"LARGE","NORAD_CAT_ID":"50828","CLASSIFICATION_TYPE":"U","DECAY_DATE":null,"ARG_OF_PERICENTER":"58.5725","OBJECT_TYPE":"PAYLOAD","INCLINATION":"53.2174","OBJECT_NAME":"STARLINK-3290","PERIAPSIS":"466.574","ELEMENT_SET_NO":"999","PERIOD":"93.946","LAUNCH_DATE":"2022-01-06","ECCENTRICITY":"0.00013190","REV_AT_EPOCH":"365","TLE_LINE1":"1 50828U 22001AB  22087.91667824 -.00717836  00000-0 -24214-1 0  9998","MEAN_ELEMENT_THEORY":"SGP4","APOAPSIS":"468.379","RA_OF_ASC_NODE":"162.8735","CENTER_NAME":"EARTH","GP_ID":"199946236","EPHEMERIS_TYPE":"0","SEMIMAJOR_AXIS":"6845.611","MEAN_ANOMALY":"34.9656","SITE":"AFETR","BSTAR":"-0.02421400000000","COUNTRY_CODE":"US","OBJECT_ID":"2022-001AB","MEAN_MOTION_DOT":"-0.00717836","MEAN_MOTION":"15.32796109","TLE_LINE2":"2 50828  53.2174 162.8735 0001319  58.5725  34.9656 15.32796109  3655","EPOCH":"2022-03-28T22:00:00.999936","MEAN_MOTION_DDOT":"0.0000000000000","REF_FRAME":"TEME"},{"ECCENTRICITY":"0.00015300","REV_AT_EPOCH":"365","TLE_LINE1":"1 50829U 22001AC  22087.91667824 -.00718349  00000-0 -24468-1 0  9990","PERIOD":"93.965","LAUNCH_DATE":"2022-01-06","ELEMENT_SET_NO":"999","INCLINATION":"53.2175","OBJECT_NAME":"STARLINK-3294","PERIAPSIS":"467.343","NORAD_CAT_ID":"50829","RCS_SIZE":"LARGE","CLASSIFICATION_TYPE":"U","ARG_OF_PERICENTER":"42.2451","DECAY_DATE":null,"OBJECT_TYPE":"PAYLOAD","FILE":"3378342","TIME_SYSTEM":"UTC","MEAN_MOTION_DDOT":"0.0000000000000","REF_FRAME":"TEME","TLE_LINE2":"2 50829  53.2175 162.8781 0001530  42.2451  13.6876 15.32489254  3657","EPOCH":"2022-03-28T22:00:00.999936","MEAN_MOTION_DOT":"-0.00718349","MEAN_MOTION":"15.32489254","OBJECT_ID":"2022-001AC","MEAN_ANOMALY":"13.6876","SITE":"AFETR","BSTAR":"-0.02446800000000","COUNTRY_CODE":"US","EPHEMERIS_TYPE":"0","SEMIMAJOR_AXIS":"6846.525","RA_OF_ASC_NODE":"162.8781","CENTER_NAME":"EARTH","GP_ID":"199944984","MEAN_ELEMENT_THEORY":"SGP4","APOAPSIS":"469.438"},{"MEAN_ELEMENT_THEORY":"SGP4","APOAPSIS":"536.781","CENTER_NAME":"EARTH","GP_ID":"199945234","RA_OF_ASC_NODE":"171.0531","SEMIMAJOR_AXIS":"6913.627","EPHEMERIS_TYPE":"0","SITE":"AFETR","COUNTRY_CODE":"US","BSTAR":"-0.04067700000000","MEAN_ANOMALY":"83.8025","OBJECT_ID":"2022-001AD","MEAN_MOTION":"15.10232767","MEAN_MOTION_DOT":"-0.00631794","EPOCH":"2022-03-28T22:00:00.999936","TLE_LINE2":"2 50830  53.2166 171.0531 0001865  34.0415  83.8025 15.10232767  3593","MEAN_MOTION_DDOT":"0.0000000000000","REF_FRAME":"TEME","TIME_SYSTEM":"UTC","FILE":"3378342","DECAY_DATE":null,"ARG_OF_PERICENTER":"34.0415","OBJECT_TYPE":"PAYLOAD","RCS_SIZE":"LARGE","NORAD_CAT_ID":"50830","CLASSIFICATION_TYPE":"U","PERIAPSIS":"534.202","INCLINATION":"53.2166","OBJECT_NAME":"STARLINK-3278","ELEMENT_SET_NO":"999","LAUNCH_DATE":"2022-01-06","PERIOD":"95.350","REV_AT_EPOCH":"359","TLE_LINE1":"1 50830U 22001AD  22087.91667824 -.00631794  00000-0 -40677-1 0  9990","ECCENTRICITY":"0.00018650"},{"RCS_SIZE":"LARGE","NORAD_CAT_ID":"50831","CLASSIFICATION_TYPE":"U","DECAY_DATE":null,"ARG_OF_PERICENTER":"59.4450","OBJECT_TYPE":"PAYLOAD","TIME_SYSTEM":"UTC","FILE":"3378342","PERIOD":"93.873","LAUNCH_DATE":"2022-01-06","ECCENTRICITY":"0.00014760","REV_AT_EPOCH":"365","TLE_LINE1":"1 50831U 22001AE  22087.91667824 -.00720031  00000-0 -23389-1 0  9995","INCLINATION":"53.2174","OBJECT_NAME":"STARLINK-3299","PERIAPSIS":"462.914","ELEMENT_SET_NO":"999","EPHEMERIS_TYPE":"0","SEMIMAJOR_AXIS":"6842.059","MEAN_ANOMALY":"145.1917","SITE":"AFETR","COUNTRY_CODE":"US","BSTAR":"-0.02338900000000","MEAN_ELEMENT_THEORY":"SGP4","APOAPSIS":"464.934","RA_OF_ASC_NODE":"162.8755","CENTER_NAME":"EARTH","GP_ID":"199945986","TLE_LINE2":"2 50831  53.2174 162.8755 0001476  59.4450 145.1917 15.33989910  3650","EPOCH":"2022-03-28T22:00:00.999936","MEAN_MOTION_DDOT":"0.0000000000000","REF_FRAME":"TEME","OBJECT_ID":"2022-001AE","MEAN_MOTION_DOT":"-0.00720031","MEAN_MOTION":"15.33989910"},{"OBJECT_ID":"2022-001AF","MEAN_MOTION":"15.08879595","MEAN_MOTION_DOT":"-0.00081879","TLE_LINE2":"2 50832  53.2175 171.4744 0001897  36.6730 243.3042 15.08879595  3616","EPOCH":"2022-03-28T22:00:00.999936","REF_FRAME":"TEME","MEAN_MOTION_DDOT":"0.0000000000000","APOAPSIS":"540.937","MEAN_ELEMENT_THEORY":"SGP4","RA_OF_ASC_NODE":"171.4744","GP_ID":"199945736","CENTER_NAME":"EARTH","EPHEMERIS_TYPE":"0","SEMIMAJOR_AXIS":"6917.759","MEAN_ANOMALY":"243.3042","COUNTRY_CODE":"US","BSTAR":"-0.00517980000000","SITE":"AFETR","OBJECT_NAME":"STARLINK-3328","INCLINATION":"53.2175","PERIAPSIS":"538.312","ELEMENT_SET_NO":"999","PERIOD":"95.435","LAUNCH_DATE":"2022-01-06","ECCENTRICITY":"0.00018970","TLE_LINE1":"1 50832U 22001AF  22087.91667824 -.00081879  00000-0 -51798-2 0  9992","REV_AT_EPOCH":"361","TIME_SYSTEM":"UTC","FILE":"3378342","CLASSIFICATION_TYPE":"U","NORAD_CAT_ID":"50832","RCS_SIZE":"LARGE","OBJECT_TYPE":"PAYLOAD","ARG_OF_PERICENTER":"36.6730","DECAY_DATE":null},{"TIME_SYSTEM":"UTC","FILE":"3378342","ARG_OF_PERICENTER":"59.1584","DECAY_DATE":null,"OBJECT_TYPE":"PAYLOAD","NORAD_CAT_ID":"50833","RCS_SIZE":"LARGE","CLASSIFICATION_TYPE":"U","PERIAPSIS":"463.584","INCLINATION":"53.2174","OBJECT_NAME":"STARLINK-3316","ELEMENT_SET_NO":"999","LAUNCH_DATE":"2022-01-06","PERIOD":"93.886","REV_AT_EPOCH":"365","TLE_LINE1":"1 50833U 22001AG  22087.91667824 -.00719497  00000-0 -23536-1 0  9995","ECCENTRICITY":"0.00014610","MEAN_ELEMENT_THEORY":"SGP4","APOAPSIS":"465.583","CENTER_NAME":"EARTH","GP_ID":"199944484","RA_OF_ASC_NODE":"162.8767","SEMIMAJOR_AXIS":"6842.718","EPHEMERIS_TYPE":"0","SITE":"AFETR","BSTAR":"-0.02353600000000","COUNTRY_CODE":"US","MEAN_ANOMALY":"123.7175","OBJECT_ID":"2022-001AG","MEAN_MOTION":"15.33768307","MEAN_MOTION_DOT":"-0.00719497","EPOCH":"2022-03-28T22:00:00.999936","TLE_LINE2":"2 50833  53.2174 162.8767 0001461  59.1584 123.7175 15.33768307  3657","MEAN_MOTION_DDOT":"0.0000000000000","REF_FRAME":"TEME"},{"CLASSIFICATION_TYPE":"U","RCS_SIZE":"LARGE","NORAD_CAT_ID":"50834","OBJECT_TYPE":"PAYLOAD","ARG_OF_PERICENTER":"37.1394","DECAY_DATE":null,"FILE":"3378342","TIME_SYSTEM":"UTC","ECCENTRICITY":"0.00019220","TLE_LINE1":"1 50834U 22001AH  22087.91667824 -.00064668  00000-0 -40790-2 0  9991","REV_AT_EPOCH":"361","PERIOD":"95.436","LAUNCH_DATE":"2022-01-06","ELEMENT_SET_NO":"999","OBJECT_NAME":"STARLINK-3331","INCLINATION":"53.2168","PERIAPSIS":"538.340","MEAN_ANOMALY":"302.8299","COUNTRY_CODE":"US","BSTAR":"-0.00407900000000","SITE":"AFETR","EPHEMERIS_TYPE":"0","SEMIMAJOR_AXIS":"6917.805","RA_OF_ASC_NODE":"171.4958","GP_ID":"199944734","CENTER_NAME":"EARTH","APOAPSIS":"540.999","MEAN_ELEMENT_THEORY":"SGP4","REF_FRAME":"TEME","MEAN_MOTION_DDOT":"0.0000000000000","TLE_LINE2":"2 50834  53.2168 171.4958 0001922  37.1394 302.8299 15.08864741  3610","EPOCH":"2022-03-28T22:00:00.999936","MEAN_MOTION_DOT":"-0.00064668","MEAN_MOTION":"15.08864741","OBJECT_ID":"2022-001AH"},{"ARG_OF_PERICENTER":"39.4684","DECAY_DATE":null,"OBJECT_TYPE":"PAYLOAD","RCS_SIZE":"LARGE","NORAD_CAT_ID":"50835","CLASSIFICATION_TYPE":"U","FILE":"3378342","TIME_SYSTEM":"UTC","REV_AT_EPOCH":"361","TLE_LINE1":"1 50835U 22001AJ  22087.91667824 -.00068659  00000-0 -43343-2 0  9993","ECCENTRICITY":"0.00019420","LAUNCH_DATE":"2022-01-06","PERIOD":"95.436","ELEMENT_SET_NO":"999","PERIAPSIS":"538.327","INCLINATION":"53.2148","OBJECT_NAME":"STARLINK-3310","SITE":"AFETR","COUNTRY_CODE":"US","BSTAR":"-0.00433430000000","MEAN_ANOMALY":"340.5132","SEMIMAJOR_AXIS":"6917.806","EPHEMERIS_TYPE":"0","CENTER_NAME":"EARTH","GP_ID":"199945486","RA_OF_ASC_NODE":"171.4924","MEAN_ELEMENT_THEORY":"SGP4","APOAPSIS":"541.014","MEAN_MOTION_DDOT":"0.0000000000000","REF_FRAME":"TEME","EPOCH":"2022-03-28T22:00:00.999936","TLE_LINE2":"2 50835  53.2148 171.4924 0001942  39.4684 340.5132 15.08864493  3610","MEAN_MOTION_DOT":"-0.00068659","MEAN_MOTION":"15.08864493","OBJECT_ID":"2022-001AJ"}];
